INTELSAT 805 (IS-805)   
1 25371U 98037A   17345.62615425 -.00000037  00000-0  00000+0 0  9996
2 25371   0.3910  94.0008 0003280 175.3583 205.5813  1.00271945 71381
